AMC-1 (GE-1)            
1 24315U 96054A   23010.26191372  .00000075  00000+0  00000+0 0  9996
2 24315   6.1078  71.3814 0003648 217.5852 143.9241  1.00272023 96459
AMC-3 (GE-3)            
1 24936U 97050A   23009.60383319 -.00000250  00000+0  00000+0 0  9998
2 24936   5.0482  77.5361 0003345 213.6192 323.0873  1.00272498 39857
ASTRA 1G                
1 25071U 97076A   23009.90889772  .00000125  00000+0  00000+0 0  9994
2 25071   6.7160  66.6860 0004045 223.5617 165.5027  1.00273345 91964
ASTRA 2A                
1 25462U 98050A   23010.24007799  .00000081  00000+0  00000+0 0  9992
2 25462   3.9204  83.3542 0003472 202.5591 327.2054  1.00270548 89168
AMC-4 (GE-4)            
1 25954U 99060A   23009.94986527  .00000100  00000+0  00000+0 0  9992
2 25954   2.0412  89.5025 0003179 207.7715  18.9729  1.00272014 84908
NSS-11 (AAP-1)          
1 26554U 00059A   23010.22704988  .00000039  00000+0  00000+0 0  9992
2 26554   0.0209 333.9007 0002745 315.2548  78.0516  1.00271984 81600
AMC-6 (GE-6)            
1 26580U 00067A   23010.15873611  .00000119  00000+0  00000+0 0  9991
2 26580   0.0239 321.5555 0002666 331.3556  94.6280  1.00271906 81418
ASTRA 2D                
1 26638U 00081A   23009.84563332  .00000139  00000+0  00000+0 0  9993
2 26638   7.7291  58.8858 0001807 225.8885 152.4687  1.00275751 80817
AMC-8 (GE-8)            
1 26639U 00081B   23010.12951229  .00000092  00000+0  00000+0 0  9991
2 26639   2.8825  87.6028 0005267 218.4936 256.6571  0.99148488 80693
ASTRA 2C                
1 26853U 01025A   23010.44284206 -.00000248  00000+0  00000+0 0  9991
2 26853   5.0742  77.3389 0003251 207.0004 272.2670  1.00275365 79006
NSS-7                   
1 27414U 02019A   23010.40321030 -.00000147  00000+0  00000+0 0  9990
2 27414   6.3827  69.5914 0002622 222.6238 302.5814  1.00271334 75980
NSS-6                   
1 27603U 02057A   23010.22992632  .00000121  00000+0  00000+0 0  9995
2 27603   2.1330  89.2780 0003837 203.7651  89.6711  1.00272700 73469
AMC-11 (GE-11)          
1 28252U 04017A   23009.61994041 -.00000036  00000+0  00000+0 0  9997
2 28252   0.0353 310.6455 0003040 332.3360 297.9758  1.00272044 68295
AMC-15                  
1 28446U 04041A   23009.66891449 -.00000075  00000+0  00000+0 0  9995
2 28446   0.0224 338.0859 0002649 308.3768 318.2244  1.00272005 66739
NSS-10 (AMC-12)         
1 28526U 05003A   23010.18451337 -.00000238  00000+0  00000+0 0  9991
2 28526   3.2963  85.1441 0003381 193.4397 219.8238  1.00272965 65749
ASTRA 1KR               
1 29055U 06012A   23010.19575765  .00000134  00000+0  00000+0 0  9997
2 29055   0.0616 270.3005 0005092 349.4013 299.3878  1.00272372 61178
AMC-18                  
1 29644U 06054B   23010.25359594 -.00000201  00000+0  00000+0 0  9990
2 29644   0.0103  26.9040 0002997 274.0771 176.8182  1.00270719 58954
ASTRA 1L                
1 31306U 07016A   23010.36299635  .00000135  00000+0  00000+0 0  9993
2 31306   0.0730 304.1937 0005347 347.7790 327.5033  1.00278414 57460
ASTRA 4A (SIRIUS 4)     
1 32299U 07057A   23010.26230111  .00000047  00000+0  00000+0 0  9995
2 32299   0.0114  17.3267 0003014 272.3626 279.0659  1.00273145 55387
AMC-21                  
1 33275U 08038B   23009.67896472  .00000050  00000+0  00000+0 0  9995
2 33275   0.0426 299.0482 0002642 355.5488 293.8622  1.00272177 52916
ASTRA 1M                
1 33436U 08057A   23010.12402088  .00000134  00000+0  00000+0 0  9996
2 33436   0.0219  81.0805 0001708 153.9743 298.1596  1.00271114 51905
CIEL-2                  
1 33453U 08063A   23009.54080493  .00000072  00000+0  00000+0 0  9999
2 33453   0.0157  68.2890 0003273 227.8272 238.5288  1.00270203 51558
NSS-9                   
1 33749U 09008A   23010.22844451  .00000086  00000+0  00000+0 0  9991
2 33749   0.0523 291.2165 0002349   6.4108  77.1660  1.00272803 50994
SES-7 (PROTOSTAR 2)     
1 34941U 09027A   23009.71145101 -.00000331  00000+0  00000+0 0  9999
2 34941   0.0370  76.0510 0002654 211.1351 186.1518  1.00270798 50046
NSS-12                  
1 36032U 09058A   23010.24007799  .00000086  00000+0  00000+0 0  9992
2 36032   0.0540 284.2093 0003082   8.8965 319.8095  1.00272863 48334
SES-1                   
1 36516U 10016A   23009.66978615 -.00000101  00000+0  00000+0 0  9992
2 36516   0.0112  35.1211 0002745 259.7835 314.1484  1.00272249 46469
ASTRA 3B                
1 36581U 10021A   23010.19662931  .00000151  00000+0  00000+0 0  9995
2 36581   0.0429  26.5551 0002967 264.3505 272.8110  1.00272513 46072
SES-3                   
1 37748U 11035A   23010.17829493 -.00000088  00000+0  00000+0 0  9993
2 37748   0.0247 335.2532 0003023 313.3319 142.0241  1.00272431 42121
ASTRA 1N                
1 37775U 11041A   23009.81229955  .00000133  00000+0  00000+0 0  9996
2 37775   0.0487  26.0236 0003144 318.9722  75.6991  1.00270293 31941
SES-2                   
1 37809U 11049A   23009.69563303 -.00000182  00000+0  00000+0 0  9991
2 37809   0.0110   3.3556 0003133 294.2788 334.7409  1.00270918 41376
QUETZSAT 1              
1 37826U 11054A   23009.58035594 -.00000228  00000+0  00000+0 0  9991
2 37826   0.0263 319.6776 0002877 327.3029 313.7898  1.00271953 37308
SES-4                   
1 38087U 12007A   23009.19146637 -.00000155  00000+0  00000+0 0  9997
2 38087   0.0190  50.0905 0002469 252.0184 213.2755  1.00269908 39653
SES-5                   
1 38652U 12036A   23010.26470515  .00000048  00000+0  00000+0 0  9992
2 38652   0.0590 292.4941 0002040 353.5586 283.7374  1.00271612 38490
ASTRA 2F                
1 38778U 12051A   23010.25118976  .00000164  00000+0  00000+0 0  9996
2 38778   0.0698 241.2524 0003656  16.0110 330.8424  1.00272887 37714
SES-6                   
1 39172U 13026A   23010.18390321 -.00000247  00000+0  00000+0 0  9999
2 39172   0.0448 299.9104 0002460 339.9733 215.2625  1.00272316 35141
O3B FM5                 
1 39188U 13031A   23010.36395221 -.00000017  00000+0  00000+0 0  9991
2 39188   0.0656   3.4308 0002906 292.3462  64.1905  5.00115470174405
O3B FM4                 
1 39189U 13031B   23009.62030038 -.00000018  00000+0  00000+0 0  9992
2 39189   0.0385 356.4815 0002831 297.5611  65.9252  5.00115959174292
O3B FM2                 
1 39190U 13031C   23009.51195693 -.00000018  00000+0  00000+0 0  9991
2 39190   0.0342 352.4886 0002813 299.6778  67.8011  5.00115216174344
O3B PFM                 
1 39191U 13031D   23010.13781393 -.00000017  00000+0  00000+0 0  9999
2 39191   0.0565   3.4061 0002749 285.5317  71.0298  5.00115924174385
ASTRA 2E                
1 39285U 13056A   23010.25118976  .00000165  00000+0  00000+0 0  9997
2 39285   0.0558  22.7061 0002566 277.4102 288.2801  1.00272640 34016
SES-8                   
1 39460U 13071A   23009.69216064 -.00000256  00000+0  00000+0 0  9994
2 39460   0.0517 243.8809 0001028  72.9560 136.2917  1.00271639 31856
ASTRA 5B                
1 39617U 14011B   23010.12827161  .00000169  00000+0  00000+0 0  9991
2 39617   0.0358 350.1104 0004083 302.4793 254.4532  1.00270835 32298
O3B FM3                 
1 40079U 14038A   23009.39300983 -.00000019  00000+0  00000+0 0  9994
2 40079   0.0461 358.5862 0004161 257.1479 104.2170  5.00116744150275
O3B FM7                 
1 40080U 14038B   23009.33916140 -.00000019  00000+0  00000+0 0  9998
2 40080   0.0443 353.4597 0003138 330.9820  35.5347  5.00115666155100
O3B FM6                 
1 40081U 14038C   23009.76535292 -.00000018  00000+0  00000+0 0  9990
2 40081   0.0451 359.2300 0002826 290.3341  70.4027  5.00115372155079
O3B FM8                 
1 40082U 14038D   23009.61930582 -.00000018  00000+0  00000+0 0  9996
2 40082   0.0420 359.6288 0002667 287.7742  72.5652  5.00115811155180
O3B FM10                
1 40348U 14083A   23009.64548402 -.00000018  00000+0  00000+0 0  9990
2 40348   0.0520   6.1860 0002727 283.1221  70.6597  5.00115234147137
O3B FM11                
1 40349U 14083B   23009.25910652 -.00000019  00000+0  00000+0 0  9999
2 40349   0.0540   1.4494 0003121 298.7354  59.7816  5.00115497147132
O3B FM12                
1 40350U 14083C   23009.68612213 -.00000018  00000+0  00000+0 0  9999
2 40350   0.0530   1.7053 0002948 288.7525  69.5079  5.00115366147160
O3B FM9                 
1 40351U 14083D   23009.51292914 -.00000019  00000+0  00000+0 0  9995
2 40351   0.0548   0.6084 0002774 290.2930  69.0662  5.00116195147307
ASTRA 2G                
1 40364U 14089A   23009.84563332  .00000163  00000+0  00000+0 0  9995
2 40364   0.0348 353.4504 0002292  16.0000  72.2684  1.00270512 29390
SES-9                   
1 41380U 16013A   23010.35701286 -.00000331  00000+0  00000+0 0  9991
2 41380   0.0367 285.7295 0000600  86.9815 333.7261  1.00272504 25187
SES-10                  
1 42432U 17017A   23010.53719911 -.00000258  00000+0  00000+0 0  9997
2 42432   0.0174  58.8743 0002974 230.1121 307.2936  1.00271614 21157
SES-15                  
1 42709U 17026A   23008.38035948  .00000073  00000+0  00000+0 0  9999
2 42709   0.0177   4.0190 0000916 317.8024 153.6055  1.00271015 21559
SES-11 (ECHOSTAR 105)   
1 42967U 17063A   23009.66891449 -.00000075  00000+0  00000+0 0  9997
2 42967   0.0190 317.4622 0003031 337.9826 309.3452  1.00271781 19148
SES-14                  
1 43175U 18012B   23010.39771890 -.00000264  00000+0  00000+0 0  9993
2 43175   0.0146 341.6495 0001160 306.7217 276.9547  1.00270814 18472
O3B FM15                
1 43231U 18024A   23009.17908549 -.00000019  00000+0  00000+0 0  9994
2 43231   0.0512   9.9132 0003088 278.6034  71.4472  5.00116317 88247
O3B FM16                
1 43232U 18024B   23009.43240641 -.00000019  00000+0  00000+0 0  9996
2 43232   0.0515  14.5041 0003094 275.0950  70.3649  5.00116085 88175
O3B FM14                
1 43233U 18024C   23010.27173796 -.00000017  00000+0  00000+0 0  9995
2 43233   0.0511  16.0335 0003046 277.7866  66.1454  5.00115532 88451
O3B FM13                
1 43234U 18024D   23009.92549640 -.00000018  00000+0  00000+0 0  9992
2 43234   0.0598   4.1996 0003870 284.4480  71.3078  5.00115115 88446
SES-12                  
1 43488U 18049A   23009.35018306 -.00000256  00000+0  00000+0 0  9991
2 43488   0.0141  38.7258 0002679 238.2476  52.6916  1.00270439 16837
O3B FM20                
1 44112U 19020A   23009.29897009 -.00000019  00000+0  00000+0 0  9991
2 44112   0.0513   6.0555 0003426 285.8292  68.0762  5.00115587 68796
O3B FM19                
1 44113U 19020B   23009.32583430 -.00000019  00000+0  00000+0 0  9996
2 44113   0.0708  13.3251 0002785 305.0049  41.6462  5.00115299 68669
O3B FM17                
1 44114U 19020C   23010.40569459 -.00000017  00000+0  00000+0 0  9991
2 44114   0.0349  20.8798 0003197 268.1117  70.9712  5.00115777 68926
O3B FM18                
1 44115U 19020D   23009.55261456 -.00000018  00000+0  00000+0 0  9993
2 44115   0.0517   5.8551 0002969 282.3790  71.7309  5.00115917 68876
SES-17                  
1 49332U 21095A   23010.19906868 -.00000258  00000+0  00000+0 0  9995
2 49332   0.0137  71.7688 0001207 220.3656 181.8779  1.00269269  5264
SES-22                  
1 52933U 22071A   23010.40864499  .00000103  00000+0  00000+0 0  9996
2 52933   0.0160 344.5385 0002999 301.9146 195.3114  1.00273105  1998
SES-20                  
1 53960U 22123A   23010.47196699 -.00000086  00000+0  00000+0 0  9993
2 53960   0.0653 117.6504 0000925 177.8753 240.9809  1.00272959   969
SES-21                  
1 53961U 22123B   23010.41088264  .00000084  00000+0  00000+0 0  9993
2 53961   0.0183  46.4989 0000796 281.6740 158.3899  1.00269294   981
O3B MPOWER-A F1         
1 54755U 22174A   22356.18260191  .00000047  00000+0  00000+0 0  9997
2 54755   9.6319 253.0871 1859317 195.2651 337.7567  7.25479946   387
O3B MPOWER-A F2         
1 54756U 22174B   23009.81208890  .00000049  00000+0  00000+0 0  9994
2 54756   9.6141 226.2098 1870864 248.1755  90.9563  7.26306032  1737
